IRIDIUM 171             
1 43929U 19002H   25051.89808882  .00000233  00000+0  76168-4 0  9992
2 43929  86.4025 194.9390 0001940  83.5700 276.5716 14.34217726319976
IRIDIUM 170             
1 43930U 19002J   25051.74989637  .00000374  00000+0  55405-4 0  9993
2 43930  86.6142 194.7768 0002330  92.4442 267.7042 14.72225793328422
IRIDIUM 167             
1 43931U 19002K   25051.47313542  .00000152  00000+0  47316-4 0  9996
2 43931  86.4015 194.8819 0002355  86.8048 273.3417 14.34217985319919
IRIDIUM 181             
1 56726U 23068S   25051.61386514  .00000252  00000+0  68948-4 0  9999
2 56726  86.4453 257.9306 0002164  76.5693 283.5749 14.43315209 92976
IRIDIUM 177             
1 56727U 23068T   25051.79629680  .00000992  00000+0  12696-3 0  9992
2 56727  86.2005 197.3199 0002342  98.2207 261.9279 14.80250758 95154
IRIDIUM 174             
1 56728U 23068U   25051.52048565  .00000193  00000+0  21872-4 0  9991
2 56728  86.2012 197.5739 0001520  85.1576 274.9819 14.80202123 95119
IRIDIUM 178             
1 56729U 23068V   25051.85307953  .00001118  00000+0  14374-3 0  9993
2 56729  86.5765 226.6289 0001632  75.0368 285.1034 14.80230675 95164
IRIDIUM 179             
1 56730U 23068W   25051.57723530  .00001139  00000+0  14638-3 0  9993
2 56730  86.6757 234.0041 0002070  88.5854 271.5605 14.80243595 95127
